{"type": "FeatureCollection", "properties": {"name": "BAVI", "id": "202609", "number": "202609", "basin": "wnp", "url": "https://agora.ex.nii.ac.jp/digital-typhoon/summary/wnp/s/202609.html.en"}, "features": [{"type": "Feature", "geometry": {"type": "Point", "coordinates": [162.6, 9.5]}, "properties": {"time": 1782864000, "pressure": 1002, "wind": 30, "display_time": "2026-07-01 00:00 UTC"}}, {"type": "Feature", "geometry": {"type": "Point", "coordinates": [162.4, 9.1]}, "properties": {"time": 1782874800, "pressure": 1000, "wind": 30, "display_time": "2026-07-01 03:00 UTC"}}, {"type": "Feature", "geometry": {"type": "Point", "coordinates": [161.8, 9.7]}, "properties": {"time": 1782885600, "pressure": 1000, "wind": 30, "display_time": "2026-07-01 06:00 UTC"}}, {"type": "Feature", "geometry": {"type": "Point", "coordinates": [161.7, 10.2]}, "properties": {"time": 1782896400, "pressure": 1000, "wind": 30, "display_time": "2026-07-01 09:00 UTC"}}, {"type": "Feature", "geometry": {"type": "Point", "coordinates": [161.5, 10.2]}, "properties": {"time": 1782907200, "pressure": 1000, "wind": 30, "display_time": "2026-07-01 12:00 UTC"}}, {"type": "Feature", "geometry": {"type": "Point", "coordinates": [161.2, 10.8]}, "properties": {"time": 1782918000, "pressure": 1000, "wind": 30, "display_time": "2026-07-01 15:00 UTC"}}, {"type": "Feature", "geometry": {"type": "Point", "coordinates": [160.6, 10.8]}, "properties": {"time": 1782928800, "pressure": 1000, "wind": 30, "display_time": "2026-07-01 18:00 UTC"}}, {"type": "Feature", "geometry": {"type": "Point", "coordinates": [160.2, 10.6]}, "properties": {"time": 1782939600, "pressure": 1002, "wind": 30, "display_time": "2026-07-01 21:00 UTC"}}, {"type": "Feature", "geometry": {"type": "Point", "coordinates": [159.9, 10.3]}, "properties": {"time": 1782950400, "pressure": 1000, "wind": 35, "display_time": "2026-07-02 00:00 UTC"}}, {"type": "Feature", "geometry": {"type": "Point", "coordinates": [159.7, 11.1]}, "properties": {"time": 1782961200, "pressure": 998, "wind": 40, "display_time": "2026-07-02 03:00 UTC"}}, {"type": "Feature", "geometry": {"type": "Point", "coordinates": [159.4, 11.9]}, "properties": {"time": 1782972000, "pressure": 998, "wind": 40, "display_time": "2026-07-02 06:00 UTC"}}, {"type": "Feature", "geometry": {"type": "Point", "coordinates": [158.3, 12.3]}, "properties": {"time": 1782982800, "pressure": 992, "wind": 50, "display_time": "2026-07-02 09:00 UTC"}}, {"type": "Feature", "geometry": {"type": "Point", "coordinates": [157.9, 12.3]}, "properties": {"time": 1782993600, "pressure": 992, "wind": 50, "display_time": "2026-07-02 12:00 UTC"}}, {"type": "Feature", "geometry": {"type": "Point", "coordinates": [157.3, 12.3]}, "properties": {"time": 1783004400, "pressure": 992, "wind": 50, "display_time": "2026-07-02 15:00 UTC"}}, {"type": "Feature", "geometry": {"type": "Point", "coordinates": [156.8, 12.7]}, "properties": {"time": 1783015200, "pressure": 990, "wind": 55, "display_time": "2026-07-02 18:00 UTC"}}, {"type": "Feature", "geometry": {"type": "Point", "coordinates": [156.3, 12.6]}, "properties": {"time": 1783026000, "pressure": 985, "wind": 60, "display_time": "2026-07-02 21:00 UTC"}}, {"type": "Feature", "geometry": {"type": "Point", "coordinates": [155.6, 12.8]}, "properties": {"time": 1783036800, "pressure": 975, "wind": 65, "display_time": "2026-07-03 00:00 UTC"}}, {"type": "Feature", "geometry": {"type": "Point", "coordinates": [154.8, 12.9]}, "properties": {"time": 1783047600, "pressure": 970, "wind": 70, "display_time": "2026-07-03 03:00 UTC"}}, {"type": "Feature", "geometry": {"type": "Point", "coordinates": [154.2, 12.9]}, "properties": {"time": 1783058400, "pressure": 955, "wind": 80, "display_time": "2026-07-03 06:00 UTC"}}, {"type": "Feature", "geometry": {"type": "Point", "coordinates": [153.6, 12.9]}, "properties": {"time": 1783069200, "pressure": 950, "wind": 85, "display_time": "2026-07-03 09:00 UTC"}}, {"type": "Feature", "geometry": {"type": "Point", "coordinates": [153.1, 12.8]}, "properties": {"time": 1783080000, "pressure": 950, "wind": 85, "display_time": "2026-07-03 12:00 UTC"}}, {"type": "Feature", "geometry": {"type": "Point", "coordinates": [152.8, 12.7]}, "properties": {"time": 1783090800, "pressure": 950, "wind": 85, "display_time": "2026-07-03 15:00 UTC"}}, {"type": "Feature", "geometry": {"type": "Point", "coordinates": [152.3, 12.7]}, "properties": {"time": 1783101600, "pressure": 935, "wind": 95, "display_time": "2026-07-03 18:00 UTC"}}, {"type": "Feature", "geometry": {"type": "Point", "coordinates": [151.9, 12.7]}, "properties": {"time": 1783112400, "pressure": 935, "wind": 95, "display_time": "2026-07-03 21:00 UTC"}}, {"type": "Feature", "geometry": {"type": "Point", "coordinates": [151.5, 12.5]}, "properties": {"time": 1783123200, "pressure": 925, "wind": 100, "display_time": "2026-07-04 00:00 UTC"}}, {"type": "Feature", "geometry": {"type": "Point", "coordinates": [151.2, 12.5]}, "properties": {"time": 1783134000, "pressure": 925, "wind": 100, "display_time": "2026-07-04 03:00 UTC"}}, {"type": "Feature", "geometry": {"type": "Point", "coordinates": [150.9, 12.5]}, "properties": {"time": 1783144800, "pressure": 920, "wind": 105, "display_time": "2026-07-04 06:00 UTC"}}, {"type": "Feature", "geometry": {"type": "Point", "coordinates": [150.7, 12.6]}, "properties": {"time": 1783155600, "pressure": 920, "wind": 105, "display_time": "2026-07-04 09:00 UTC"}}, {"type": "Feature", "geometry": {"type": "Point", "coordinates": [150.3, 12.7]}, "properties": {"time": 1783166400, "pressure": 920, "wind": 105, "display_time": "2026-07-04 12:00 UTC"}}, {"type": "Feature", "geometry": {"type": "Point", "coordinates": [149.8, 12.7]}, "properties": {"time": 1783177200, "pressure": 920, "wind": 105, "display_time": "2026-07-04 15:00 UTC"}}, {"type": "Feature", "geometry": {"type": "Point", "coordinates": [149.6, 12.7]}, "properties": {"time": 1783188000, "pressure": 920, "wind": 105, "display_time": "2026-07-04 18:00 UTC"}}, {"type": "Feature", "geometry": {"type": "Point", "coordinates": [149.2, 12.8]}, "properties": {"time": 1783198800, "pressure": 920, "wind": 105, "display_time": "2026-07-04 21:00 UTC"}}, {"type": "Feature", "geometry": {"type": "Point", "coordinates": [149.0, 12.8]}, "properties": {"time": 1783209600, "pressure": 920, "wind": 105, "display_time": "2026-07-05 00:00 UTC"}}, {"type": "Feature", "geometry": {"type": "Point", "coordinates": [148.7, 13.1]}, "properties": {"time": 1783220400, "pressure": 920, "wind": 105, "display_time": "2026-07-05 03:00 UTC"}}, {"type": "Feature", "geometry": {"type": "Point", "coordinates": [148.1, 13.5]}, "properties": {"time": 1783231200, "pressure": 910, "wind": 110, "display_time": "2026-07-05 06:00 UTC"}}]}